SUPERVIEW NEO-2 03      
1 62079U 24218B   26068.56191270  .00003926  00000+0  18696-3 0  9996
2 62079  97.4399  77.3104 0001687  89.5472 270.5956 15.19718665 71311
HAWK-12C                
1 64621U 25138A   26068.95480737  .00006237  00000+0  31483-3 0  9992
2 64621  97.4363  73.1446 0015792 124.4693 235.8035 15.17353041 38817
